[{"OBJECT_NAME":"STARLINK-5742","OBJECT_ID":"2023-020Q","EPOCH":"2026-03-09T22:00:01.999584","MEAN_MOTION":15.14945834,"ECCENTRICITY":7.796e-5,"INCLINATION":43.0014,"RA_OF_ASC_NODE":3.0271,"ARG_OF_PERICENTER":260.1747,"MEAN_ANOMALY":254.0226,"EPHEMERIS_TYPE":0,"CLASSIFICATION_TYPE":"U","NORAD_CAT_ID":55583,"ELEMENT_SET_NO":999,"REV_AT_EPOCH":577,"BSTAR":0.063095573,"MEAN_MOTION_DOT":0.01298259,"MEAN_MOTION_DDOT":0},{"OBJECT_NAME":"CZ-4C R\/B","OBJECT_ID":"2021-026B","EPOCH":"2026-03-09T16:37:41.696544","MEAN_MOTION":15.16445633,"ECCENTRICITY":0.00393855,"INCLINATION":97.7468,"RA_OF_ASC_NODE":117.371,"ARG_OF_PERICENTER":22.5612,"MEAN_ANOMALY":337.7341,"EPHEMERIS_TYPE":0,"CLASSIFICATION_TYPE":"U","NORAD_CAT_ID":48080,"ELEMENT_SET_NO":999,"REV_AT_EPOCH":27175,"BSTAR":0.00026802982,"MEAN_MOTION_DOT":5.244e-5,"MEAN_MOTION_DDOT":0}]
